[{"OBJECT_NAME":"YAOGAN-42 01","OBJECT_ID":"2024-063A","EPOCH":"2026-03-09T23:33:22.802688","MEAN_MOTION":15.23115119,"ECCENTRICITY":0.00025743,"INCLINATION":34.9985,"RA_OF_ASC_NODE":29.746,"ARG_OF_PERICENTER":171.5443,"MEAN_ANOMALY":188.5315,"EPHEMERIS_TYPE":0,"CLASSIFICATION_TYPE":"U","NORAD_CAT_ID":59395,"ELEMENT_SET_NO":999,"REV_AT_EPOCH":10771,"BSTAR":0.00052016126,"MEAN_MOTION_DOT":0.00012558,"MEAN_MOTION_DDOT":0},{"OBJECT_NAME":"AIST-2 (RS43)","OBJECT_ID":"2013-015D","EPOCH":"2026-03-09T22:52:25.813056","MEAN_MOTION":15.25079544,"ECCENTRICITY":0.00239979,"INCLINATION":64.8687,"RA_OF_ASC_NODE":221.5348,"ARG_OF_PERICENTER":248.8384,"MEAN_ANOMALY":111.0181,"EPHEMERIS_TYPE":0,"CLASSIFICATION_TYPE":"U","NORAD_CAT_ID":39133,"ELEMENT_SET_NO":999,"REV_AT_EPOCH":70876,"BSTAR":0.00037899099,"MEAN_MOTION_DOT":9.402e-5,"MEAN_MOTION_DDOT":0}]
